{"type": "FeatureCollection", "features": [ {"type": "Feature", "properties": {"norad_id": 39122, "name": "EUTELSAT 117 WEST A", "group": "eutelsat", "lat": 0.026899246422706795, "lon": 112.00001283011858, "alt_km": 35797.37723676495, "timestamp": "2025-12-10T09:57:44.375662+00:00", "meta": {"OBJECT_NAME": "EUTELSAT 117 WEST A", "OBJECT_ID": "2013-012A", "EPOCH": "2025-12-10T04:39:38.509344", "MEAN_MOTION": 1.00270942, "ECCENTRICITY": 0.0003036, "INCLINATION": 0.0128, "RA_OF_ASC_NODE": 356.7068, "ARG_OF_PERICENTER": 264.7569, "MEAN_ANOMALY": 130.8158, "EPHEMERIS_TYPE": 0, "CLASSIFICATION_TYPE": "U", "NORAD_CAT_ID": 39122, "ELEMENT_SET_NO": 999, "REV_AT_EPOCH": 4653, "BSTAR": 0, "MEAN_MOTION_DOT": -1e-07, "MEAN_MOTION_DDOT": 0}, "tle": {"line1": "1 39122U 13012A   25344.19419571 -.00000010  00000+0  00000+0 0  9999", "line2": "2 39122   0.0128 356.7068 0003036 264.7569 130.8158  1.00270942 46535"}}, "geometry": {"type": "Point", "coordinates": [112.00001283011858, 0.026899246422706795]}}, {"type": "Feature", "properties": {"norad_id": 39163, "name": "EUTELSAT 7B", "group": "eutelsat", "lat": -0.0626453559555809, "lon": -124.24040293203744, "alt_km": 35782.418943134144, "timestamp": "2025-12-10T09:57:44.375674+00:00", "meta": {"OBJECT_NAME": "EUTELSAT 7B", "OBJECT_ID": "2013-022A", "EPOCH": "2025-12-10T00:54:38.687328", "MEAN_MOTION": 1.00271909, "ECCENTRICITY": 0.0004588, "INCLINATION": 0.0711, "RA_OF_ASC_NODE": 16.0707, "ARG_OF_PERICENTER": 299.1502, "MEAN_ANOMALY": 144.4477, "EPHEMERIS_TYPE": 0, "CLASSIFICATION_TYPE": "U", "NORAD_CAT_ID": 39163, "ELEMENT_SET_NO": 999, "REV_AT_EPOCH": 4606, "BSTAR": 0, "MEAN_MOTION_DOT": 5.1e-07, "MEAN_MOTION_DDOT": 0}, "tle": {"line1": "1 39163U 13022A   25344.03794777  .00000051  00000+0  00000+0 0  9996", "line2": "2 39163   0.0711  16.0707 0004588 299.1502 144.4477  1.00271909 46063"}}, "geometry": {"type": "Point", "coordinates": [-124.24040293203744, -0.0626453559555809]}}, {"type": "Feature", "properties": {"norad_id": 39612, "name": "EXPRESS-AT1", "group": "eutelsat", "lat": -0.011316671683267778, "lon": -75.1788195755597, "alt_km": 35786.0112617952, "timestamp": "2025-12-10T09:57:44.375687+00:00", "meta": {"OBJECT_NAME": "EXPRESS-AT1", "OBJECT_ID": "2014-010A", "EPOCH": "2025-12-10T00:53:38.582304", "MEAN_MOTION": 1.0027054, "ECCENTRICITY": 5.76e-05, "INCLINATION": 0.0121, "RA_OF_ASC_NODE": 290.9998, "ARG_OF_PERICENTER": 272.8151, "MEAN_ANOMALY": 304.608, "EPHEMERIS_TYPE": 0, "CLASSIFICATION_TYPE": "U", "NORAD_CAT_ID": 39612, "ELEMENT_SET_NO": 999, "REV_AT_EPOCH": 4292, "BSTAR": 0, "MEAN_MOTION_DOT": 8.2e-07, "MEAN_MOTION_DDOT": 0}, "tle": {"line1": "1 39612U 14010A   25344.03725211  .00000082  00000+0  00000+0 0  9994", "line2": "2 39612   0.0121 290.9998 0000576 272.8151 304.6080  1.00270540 42924"}}, "geometry": {"type": "Point", "coordinates": [-75.1788195755597, -0.011316671683267778]}}, {"type": "Feature", "properties": {"norad_id": 39613, "name": "EXPRESS-AT2", "group": "eutelsat", "lat": 0.020234866081261203, "lon": 8.706678112616896, "alt_km": 35784.473211376746, "timestamp": "2025-12-10T09:57:44.375712+00:00", "meta": {"OBJECT_NAME": "EXPRESS-AT2", "OBJECT_ID": "2014-010B", "EPOCH": "2025-12-10T03:41:38.473728", "MEAN_MOTION": 1.00272415, "ECCENTRICITY": 0.0001553, "INCLINATION": 0.0173, "RA_OF_ASC_NODE": 331.4416, "ARG_OF_PERICENTER": 320.3324, "MEAN_ANOMALY": 342.636, "EPHEMERIS_TYPE": 0, "CLASSIFICATION_TYPE": "U", "NORAD_CAT_ID": 39613, "ELEMENT_SET_NO": 999, "REV_AT_EPOCH": 4260, "BSTAR": 0, "MEAN_MOTION_DOT": -2.78e-06, "MEAN_MOTION_DDOT": 0}, "tle": {"line1": "1 39613U 14010B   25344.15391752 -.00000278  00000+0  00000+0 0  9995", "line2": "2 39613   0.0173 331.4416 0001553 320.3324 342.6360  1.00272415 42606"}}, "geometry": {"type": "Point", "coordinates": [8.706678112616896, 0.020234866081261203]}}, {"type": "Feature", "properties": {"norad_id": 39773, "name": "EUTELSAT 3B", "group": "eutelsat", "lat": -0.0762454499903254, "lon": -128.06739939919837, "alt_km": 35766.27722208774, "timestamp": "2025-12-10T09:57:44.375728+00:00", "meta": {"OBJECT_NAME": "EUTELSAT 3B", "OBJECT_ID": "2014-030A", "EPOCH": "2025-12-09T23:46:38.709120", "MEAN_MOTION": 1.00271631, "ECCENTRICITY": 0.0004702, "INCLINATION": 0.0624, "RA_OF_ASC_NODE": 343.1083, "ARG_OF_PERICENTER": 245.4543, "MEAN_ANOMALY": 210.1786, "EPHEMERIS_TYPE": 0, "CLASSIFICATION_TYPE": "U", "NORAD_CAT_ID": 39773, "ELEMENT_SET_NO": 999, "REV_AT_EPOCH": 4217, "BSTAR": 0, "MEAN_MOTION_DOT": 2.3e-07, "MEAN_MOTION_DDOT": 0}, "tle": {"line1": "1 39773U 14030A   25343.99072580  .00000023  00000+0  00000+0 0  9997", "line2": "2 39773   0.0624 343.1083 0004702 245.4543 210.1786  1.00271631 42175"}}, "geometry": {"type": "Point", "coordinates": [-128.06739939919837, -0.0762454499903254]}}, {"type": "Feature", "properties": {"norad_id": 40425, "name": "EUTELSAT 115 WEST B", "group": "eutelsat", "lat": -0.005583094214391109, "lon": 113.92575691543841, "alt_km": 35785.809662481355, "timestamp": "2025-12-10T09:57:44.375740+00:00", "meta": {"OBJECT_NAME": "EUTELSAT 115 WEST B", "OBJECT_ID": "2015-010B", "EPOCH": "2025-12-10T04:39:38.509344", "MEAN_MOTION": 1.00271354, "ECCENTRICITY": 9.6e-06, "INCLINATION": 0.0103, "RA_OF_ASC_NODE": 146.2902, "ARG_OF_PERICENTER": 311.1919, "MEAN_ANOMALY": 296.7047, "EPHEMERIS_TYPE": 0, "CLASSIFICATION_TYPE": "U", "NORAD_CAT_ID": 40425, "ELEMENT_SET_NO": 999, "REV_AT_EPOCH": 3949, "BSTAR": 0, "MEAN_MOTION_DOT": -2.2e-07, "MEAN_MOTION_DDOT": 0}, "tle": {"line1": "1 40425U 15010B   25344.19419571 -.00000022  00000+0  00000+0 0  9990", "line2": "2 40425   0.0103 146.2902 0000096 311.1919 296.7047  1.00271354 39498"}}, "geometry": {"type": "Point", "coordinates": [113.92575691543841, -0.005583094214391109]}}, {"type": "Feature", "properties": {"norad_id": 40875, "name": "EUTELSAT 8 WEST B", "group": "eutelsat", "lat": -0.05619927294033776, "lon": -139.1924455063165, "alt_km": 35772.50616630608, "timestamp": "2025-12-10T09:57:44.375752+00:00", "meta": {"OBJECT_NAME": "EUTELSAT 8 WEST B", "OBJECT_ID": "2015-039B", "EPOCH": "2025-12-09T23:54:38.674080", "MEAN_MOTION": 1.00271522, "ECCENTRICITY": 0.000417, "INCLINATION": 0.0646, "RA_OF_ASC_NODE": 2.0291, "ARG_OF_PERICENTER": 258.1317, "MEAN_ANOMALY": 169.4941, "EPHEMERIS_TYPE": 0, "CLASSIFICATION_TYPE": "U", "NORAD_CAT_ID": 40875, "ELEMENT_SET_NO": 999, "REV_AT_EPOCH": 3776, "BSTAR": 0, "MEAN_MOTION_DOT": -6.3e-07, "MEAN_MOTION_DDOT": 0}, "tle": {"line1": "1 40875U 15039B   25343.99628095 -.00000063  00000+0  00000+0 0  9995", "line2": "2 40875   0.0646   2.0291 0004170 258.1317 169.4941  1.00271522 37762"}}, "geometry": {"type": "Point", "coordinates": [-139.1924455063165, -0.05619927294033776]}}, {"type": "Feature", "properties": {"norad_id": 41310, "name": "EUTELSAT 9B", "group": "eutelsat", "lat": -0.016531793707584137, "lon": -122.18706660618065, "alt_km": 35767.64658549201, "timestamp": "2025-12-10T09:57:44.375764+00:00", "meta": {"OBJECT_NAME": "EUTELSAT 9B", "OBJECT_ID": "2016-005A", "EPOCH": "2025-12-10T00:54:38.687328", "MEAN_MOTION": 1.00272522, "ECCENTRICITY": 0.0004849, "INCLINATION": 0.0384, "RA_OF_ASC_NODE": 56.914, "ARG_OF_PERICENTER": 208.49, "MEAN_ANOMALY": 196.2913, "EPHEMERIS_TYPE": 0, "CLASSIFICATION_TYPE": "U", "NORAD_CAT_ID": 41310, "ELEMENT_SET_NO": 999, "REV_AT_EPOCH": 3622, "BSTAR": 0, "MEAN_MOTION_DOT": 6.5e-07, "MEAN_MOTION_DDOT": 0}, "tle": {"line1": "1 41310U 16005A   25344.03794777  .00000065  00000+0  00000+0 0  9992", "line2": "2 41310   0.0384  56.9140 0004849 208.4900 196.2913  1.00272522 36224"}}, "geometry": {"type": "Point", "coordinates": [-122.18706660618065, -0.016531793707584137]}}, {"type": "Feature", "properties": {"norad_id": 41382, "name": "EUTELSAT 65 WEST A", "group": "eutelsat", "lat": 0.020741055412704296, "lon": 163.59015576340775, "alt_km": 35788.18681562203, "timestamp": "2025-12-10T09:57:44.375776+00:00", "meta": {"OBJECT_NAME": "EUTELSAT 65 WEST A", "OBJECT_ID": "2016-014A", "EPOCH": "2025-12-10T04:07:38.715168", "MEAN_MOTION": 1.00272579, "ECCENTRICITY": 0.000262, "INCLINATION": 0.0501, "RA_OF_ASC_NODE": 7.2682, "ARG_OF_PERICENTER": 258.3578, "MEAN_ANOMALY": 170.2329, "EPHEMERIS_TYPE": 0, "CLASSIFICATION_TYPE": "U", "NORAD_CAT_ID": 41382, "ELEMENT_SET_NO": 999, "REV_AT_EPOCH": 3564, "BSTAR": 0, "MEAN_MOTION_DOT": -2.73e-06, "MEAN_MOTION_DDOT": 0}, "tle": {"line1": "1 41382U 16014A   25344.17197587 -.00000273  00000+0  00000+0 0  9994", "line2": "2 41382   0.0501   7.2682 0002620 258.3578 170.2329  1.00272579 35644"}}, "geometry": {"type": "Point", "coordinates": [163.59015576340775, 0.020741055412704296]}}, {"type": "Feature", "properties": {"norad_id": 41589, "name": "EUTELSAT 117 WEST B", "group": "eutelsat", "lat": -0.014117104247097096, "lon": 111.831665691372, "alt_km": 35784.713743531196, "timestamp": "2025-12-10T09:57:44.375793+00:00", "meta": {"OBJECT_NAME": "EUTELSAT 117 WEST B", "OBJECT_ID": "2016-038B", "EPOCH": "2025-12-09T14:43:38.546112", "MEAN_MOTION": 1.00271212, "ECCENTRICITY": 3.69e-05, "INCLINATION": 0.0013, "RA_OF_ASC_NODE": 169.4503, "ARG_OF_PERICENTER": 286.2539, "MEAN_ANOMALY": 86.8165, "EPHEMERIS_TYPE": 0, "CLASSIFICATION_TYPE": "U", "NORAD_CAT_ID": 41589, "ELEMENT_SET_NO": 999, "REV_AT_EPOCH": 3476, "BSTAR": 0, "MEAN_MOTION_DOT": -9e-08, "MEAN_MOTION_DDOT": 0}, "tle": {"line1": "1 41589U 16038B   25343.61364058 -.00000009  00000+0  00000+0 0  9993", "line2": "2 41589   0.0013 169.4503 0000369 286.2539  86.8165  1.00271212 34764"}}, "geometry": {"type": "Point", "coordinates": [111.831665691372, -0.014117104247097096]}}]}